NORAD_CAT_ID,OBJECT_NAME,OBJECT_TYPE,EPOCH,MEAN_MOTION,ECCENTRICITY,INCLINATION,RA_OF_ASC_NODE,ARG_OF_PERICENTER,MEAN_ANOMALY,BSTAR,MEAN_MOTION_DOT,MEAN_MOTION_DDOT,TLE_LINE0,TLE_LINE1,TLE_LINE2,SEMIMAJOR_AXIS,PERIOD,APOGEE,PERIGEE,DECAYED
54803.0,STARLINK-5430,PAYLOAD,2023-08-27 04:24:56,15.08837919,0.000137,53.216,238.5422,94.5497,265.5652,2.6953e-05,1.41e-06,0.0,0 STARLINK-5430,1 54803U 22175AX  23239.18398545  .00000141  00000-0  26953-4 0  9994,2 54803  53.2160 238.5422 0001370  94.5497 265.5652 15.08837919 40202,6917.887,95.438,540.7,538.804,0.0
54803.0,STARLINK-5430,PAYLOAD,2023-08-28 07:26:29,15.08842389,0.0001392,53.216,233.4863,93.9254,266.1897,5.4892e-05,5.86e-06,0.0,0 STARLINK-5430,1 54803U 22175AX  23240.31006286  .00000586  00000-0  54892-4 0  9995,2 54803  53.2160 233.4863 0001392  93.9254 266.1897 15.08842389 38216,6917.873,95.437,540.701,538.775,0.0
54803.0,STARLINK-5430,PAYLOAD,2023-08-28 20:09:34,15.0883681,0.0001372,53.2156,231.106,95.2568,264.858,4.3642e-05,4.07e-06,0.0,0 STARLINK-5430,1 54803U 22175AX  23240.83998649  .00000407  00000-0  43642-4 0  9998,2 54803  53.2156 231.1060 0001372  95.2568 264.8580 15.08836810 40451,6917.89,95.438,540.704,538.806,0.0
54803.0,STARLINK-5430,PAYLOAD,2023-08-28 23:20:21,15.08836374,0.0001367,53.2155,230.5118,93.6794,266.4354,3.3524e-05,2.46e-06,0.0,0 STARLINK-5430,1 54803U 22175AX  23240.97246748  .00000246  00000-0  33524-4 0  9998,2 54803  53.2155 230.5118 0001367  93.6794 266.4354 15.08836374 38318,6917.891,95.438,540.702,538.811,0.0
54803.0,STARLINK-5430,PAYLOAD,2023-08-29 08:52:39,15.08840905,0.00014,53.2159,228.7284,89.2387,270.8765,5.843e-05,6.42e-06,0.0,0 STARLINK-5430,1 54803U 22175AX  23241.36990461  .00000642  00000-0  58430-4 0  9993,2 54803  53.2159 228.7284 0001400  89.2387 270.8765 15.08840905 40539,6917.878,95.437,540.711,538.774,0.0
54803.0,STARLINK-5430,PAYLOAD,2023-08-30 05:32:40,15.08842399,0.0001398,53.216,224.8628,89.8673,270.2479,3.3215e-05,2.41e-06,0.0,0 STARLINK-5430,1 54803U 22175AX  23242.23102485  .00000241  00000-0  33215-4 0  9990,2 54803  53.2160 224.8628 0001398  89.8673 270.2479 15.08842399 38509,6917.873,95.437,540.705,538.771,0.0
54803.0,STARLINK-5430,PAYLOAD,2023-08-31 08:34:14,15.08838285,0.0001446,53.2163,219.8068,93.3867,266.7291,1.7908e-05,-3e-08,0.0,0 STARLINK-5430,1 54803U 22175AX  23243.35710813 -.00000003  00000-0  17908-4 0  9992,2 54803  53.2163 219.8068 0001446  93.3867 266.7291 15.08838285 38672,6917.886,95.438,540.751,538.75,0.0
54803.0,STARLINK-5430,PAYLOAD,2023-09-01 06:49:38,15.08835299,0.0001377,53.2166,215.644,88.5653,271.5496,-7.7921e-06,-4.12e-06,0.0,0 STARLINK-5430,1 54803U 22175AX  23244.28447360 -.00000412  00000-0 -77921-5 0  9996,2 54803  53.2166 215.6440 0001377  88.5653 271.5496 15.08835299 38814,6917.895,95.438,540.712,538.807,0.0
54803.0,STARLINK-5430,PAYLOAD,2023-09-01 14:46:34,15.08838629,0.0001379,53.2155,214.1578,90.6467,269.4683,7.9614e-07,-2.75e-06,0.0,0 STARLINK-5430,1 54803U 22175AX  23244.61567137 -.00000275  00000-0  79614-6 0  9996,2 54803  53.2155 214.1578 0001379  90.6467 269.4683 15.08838629 41028,6917.885,95.438,540.704,538.796,0.0
54803.0,STARLINK-5430,PAYLOAD,2023-09-02 08:15:47,15.08846033,0.0001372,53.2152,210.8865,91.5242,268.5907,0.00013921,1.929e-05,0.0,0 STARLINK-5430,1 54803U 22175AX  23245.34430210  .00001929  00000-0  13921-3 0  9990,2 54803  53.2152 210.8865 0001372  91.5242 268.5907 15.08846033 38978,6917.862,95.437,540.676,538.778,0.0
54803.0,STARLINK-5430,PAYLOAD,2023-09-02 14:37:20,15.08837772,0.0001321,53.215,209.6968,89.7058,270.4086,6.9176e-05,8.13e-06,0.0,0 STARLINK-5430,1 54803U 22175AX  23245.60926955  .00000813  00000-0  69176-4 0  9990,2 54803  53.2150 209.6968 0001321  89.7058 270.4086 15.08837772 39010,6917.887,95.438,540.666,538.838,0.0
54803.0,STARLINK-5430,PAYLOAD,2023-09-02 20:58:53,15.08834385,0.0001463,53.2139,208.5082,91.1762,268.9398,5.079e-05,5.2e-06,0.0,0 STARLINK-5430,1 54803U 22175AX  23245.87423335  .00000520  00000-0  50790-4 0  9990,2 54803  53.2139 208.5082 0001463  91.1762 268.9398 15.08834385 41218,6917.898,95.438,540.775,538.75,0.0
54803.0,STARLINK-5430,PAYLOAD,2023-09-03 00:09:40,15.08830652,0.0001341,53.2155,207.913,87.1287,272.9858,-1.3839e-05,-5.08e-06,0.0,0 STARLINK-5430,1 54803U 22175AX  23246.00671834 -.00000508  00000-0 -13839-4 0  9996,2 54803  53.2155 207.9130 0001341  87.1287 272.9858 15.08830652 39075,6917.909,95.438,540.702,538.846,0.0
54803.0,STARLINK-5430,PAYLOAD,2023-09-03 04:55:49,15.08839432,0.0001533,53.2165,207.0214,87.4555,272.6613,3.9499e-05,3.41e-06,0.0,0 STARLINK-5430,1 54803U 22175AX  23246.20543250  .00000341  00000-0  39499-4 0  9991,2 54803  53.2165 207.0214 0001533  87.4555 272.6613 15.08839432 39109,6917.882,95.438,540.808,538.687,0.0
54803.0,STARLINK-5430,PAYLOAD,2023-09-04 06:22:00,15.08828482,0.0001727,53.2163,202.2629,83.3686,276.7502,-1.4545e-05,-5.19e-06,0.0,0 STARLINK-5430,1 54803U 22175AX  23247.26528345 -.00000519  00000-0 -14545-4 0  9990,2 54803  53.2163 202.2629 0001727  83.3686 276.7502 15.08828482 39261,6917.916,95.438,540.975,538.586,0.0
54803.0,STARLINK-5430,PAYLOAD,2023-09-04 14:18:55,15.0883406,0.0001714,53.2166,200.7764,83.5562,276.5626,2.6084e-05,1.27e-06,0.0,0 STARLINK-5430,1 54803U 22175AX  23247.59647997  .00000127  00000-0  26084-4 0  9995,2 54803  53.2166 200.7764 0001714  83.5562 276.5626 15.08834060 39318,6917.899,95.438,540.949,538.578,0.0
54803.0,STARLINK-5430,PAYLOAD,2023-09-04 23:51:12,15.08915464,0.0002135,53.2165,198.9927,70.7172,289.4051,-0.00098547,-0.00015971,0.0,0 STARLINK-5430,1 54803U 22175AX  23247.99389812 -.00015971  00000-0 -98547-3 0  9995,2 54803  53.2165 198.9927 0002135  70.7172 289.4051 15.08915464 39378,6917.65,95.433,540.992,538.038,0.0
54803.0,STARLINK-5430,PAYLOAD,2023-09-05 06:12:46,15.08842053,0.0001728,53.2166,197.8033,81.3453,278.7734,7.6706e-05,9.33e-06,0.0,0 STARLINK-5430,1 54803U 22175AX  23248.25887520  .00000933  00000-0  76706-4 0  9998,2 54803  53.2166 197.8033 0001728  81.3453 278.7734 15.08842053 39419,6917.874,95.437,540.935,538.544,0.0
54803.0,STARLINK-5430,PAYLOAD,2023-09-06 02:52:47,15.08827071,0.0001474,53.216,193.9357,92.8267,267.2894,0.00033493,5.045e-05,0.0,0 STARLINK-5430,1 54803U 22175AX  23249.11999739  .00005045  00000-0  33493-3 0  9994,2 54803  53.2160 193.9357 0001474  92.8267 267.2894 15.08827071 39544,6917.92,95.438,540.805,538.765,0.0
54803.0,STARLINK-5430,PAYLOAD,2023-09-06 20:22:02,15.08827442,0.0001596,53.2166,190.665,95.0482,265.0692,0.00023607,3.47e-05,0.0,0 STARLINK-5430,1 54803U 22175AX  23249.84863878  .00003470  00000-0  23607-3 0  9994,2 54803  53.2166 190.6650 0001596  95.0482 265.0692 15.08827442 41816,6917.919,95.438,540.888,538.68,0.0
54803.0,STARLINK-5430,PAYLOAD,2023-09-07 05:54:20,15.08845884,0.0001654,53.217,188.8812,98.0047,262.1133,2.606e-05,1.27e-06,0.0,0 STARLINK-5430,1 54803U 22175AX  23250.24607238  .00000127  00000-0  26060-4 0  9999,2 54803  53.2170 188.8812 0001654  98.0047 262.1133 15.08845884 39719,6917.862,95.437,540.872,538.583,0.0
54803.0,STARLINK-5430,PAYLOAD,2023-09-07 15:26:39,15.08837633,0.0001498,53.2143,187.0973,100.0761,260.04,-1.3327e-05,-5e-06,0.0,0 STARLINK-5430,1 54803U 22175AX  23250.64351775 -.00000500  00000-0 -13327-4 0  9994,2 54803  53.2143 187.0973 0001498 100.0761 260.0400 15.08837633 39774,6917.888,95.438,540.789,538.716,0.0
54803.0,STARLINK-5430,PAYLOAD,2023-09-08 05:45:08,15.08837558,0.0001463,53.2163,184.4199,92.2264,267.8896,1.1395e-06,-2.7e-06,0.0,0 STARLINK-5430,1 54803U 22175AX  23251.23967899 -.00000270  00000-0  11395-5 0  9997,2 54803  53.2163 184.4199 0001463  92.2264 267.8896 15.08837558 42021,6917.888,95.438,540.765,538.741,0.0
54803.0,STARLINK-5430,PAYLOAD,2023-09-08 20:03:36,15.08835163,0.0001459,53.2172,181.7435,92.4387,267.6773,-2.2999e-05,-6.54e-06,0.0,0 STARLINK-5430,1 54803U 22175AX  23251.83584293 -.00000654  00000-0 -22999-4 0  9994,2 54803  53.2172 181.7435 0001459  92.4387 267.6773 15.08835163 42119,6917.895,95.438,540.769,538.751,0.0
54803.0,STARLINK-5430,PAYLOAD,2023-09-09 00:49:45,15.08839093,0.0001414,53.2172,180.851,98.9249,261.1903,1.0139e-05,-1.27e-06,0.0,0 STARLINK-5430,1 54803U 22175AX  23252.03455955 -.00000127  00000-0  10139-4 0  9996,2 54803  53.2172 180.8510 0001414  98.9249 261.1903 15.08839093 39983,6917.883,95.438,540.726,538.77,0.0
54803.0,STARLINK-5430,PAYLOAD,2023-09-09 11:57:27,15.08839545,0.0001392,53.2163,178.7709,91.0305,269.0846,8.1639e-05,1.012e-05,0.0,0 STARLINK-5430,1 54803U 22175AX  23252.49823767  .00001012  00000-0  81639-4 0  9992,2 54803  53.2163 178.7709 0001392  91.0305 269.0846 15.08839545 42216,6917.882,95.438,540.71,538.784,0.0
54803.0,STARLINK-5430,PAYLOAD,2023-09-10 02:15:56,15.08834979,0.0001528,53.2183,176.0987,106.7704,253.3456,9.9037e-05,1.288e-05,0.0,0 STARLINK-5430,1 54803U 22175AX  23253.09440267  .00001288  00000-0  99037-4 0  9995,2 54803  53.2183 176.0987 0001528 106.7704 253.3456 15.08834979 40144,6917.896,95.438,540.818,538.704,0.0
54803.0,STARLINK-5430,PAYLOAD,2023-09-10 03:51:19,15.08841418,0.0001517,53.2181,175.8009,100.4688,259.6475,2.3075e-05,7.9e-07,0.0,0 STARLINK-5430,1 54803U 22175AX  23253.16064172  .00000079  00000-0  23075-4 0  9996,2 54803  53.2181 175.8009 0001517 100.4688 259.6475 15.08841418 42311,6917.876,95.437,540.79,538.692,0.0
54803.0,STARLINK-5430,PAYLOAD,2023-09-11 03:42:06,15.08840042,0.0001295,53.2173,171.34,89.9323,270.1817,4.7837e-05,4.74e-06,0.0,0 STARLINK-5430,1 54803U 22175AX  23254.15424475  .00000474  00000-0  47837-4 0  9993,2 54803  53.2173 171.3400 0001295  89.9323 270.1817 15.08840042 40305,6917.88,95.438,540.641,538.849,0.0
54803.0,STARLINK-5430,PAYLOAD,2023-09-11 11:39:02,15.08841379,0.0001291,53.2171,169.8528,94.0971,266.0169,4.7965e-05,4.76e-06,0.0,0 STARLINK-5430,1 54803U 22175AX  23254.48544381  .00000476  00000-0  47965-4 0  9992,2 54803  53.2171 169.8528 0001291  94.0971 266.0169 15.08841379 42511,6917.876,95.437,540.634,538.848,0.0
